From 79 observations 2018 Dec. 18-2019 Feb. 2; mean residual 0".62
# State vector (heliocentric equatorial J2000):
#   -0.209666464540  +1.608905554453  +2.145122255192 AU
#   -0.909092009147  +2.457570041719 -14.337651228757 mAU/day
# MOIDs: Me  1.2608 Ve  0.9543 Ea  0.7353 Ma  0.2468
# MOIDs: Ju  0.2714 Sa  2.3540 Ur  8.7773 Ne 16.2605
Orbital elements:  P10Lwea
   Perihelion 2019 Jul 26.500926 +/- 0.00798 TT = 12:01:20 (JD 2458691.000926)
Epoch 2019 Feb  2.0 TT = JDT 2458516.5   Earth MOID: 0.7354   Ju: 0.2732
M 359.29650 +/- 0.0035              (J2000 ecliptic)          Find_Orb
n   0.00403146 +/- 2.03e-5          Peri.  237.79468 +/- 0.007
a  39.0985586 +/- 0.131             Node   278.36797 +/- 0.0025
e   0.9635179 +/- 0.000119          Incl.   84.34118 +/- 0.0033
P 244.48                   H 15.6   G  0.15   U  5.5  
q 1.42639704 +/- 0.00014    Q 76.7707203 +/- 0.261
From 79 observations 2018 Dec. 18-2019 Feb. 2; mean residual 0".58
# State vector (heliocentric equatorial J2000):
#   -0.209638120227  +1.608960744835  +2.145237238227 AU
#   -0.908241060955  +2.458012285562 -14.338569549241 mAU/day
# MOIDs: Me  1.2609 Ve  0.9544 Ea  0.7354 Ma  0.2469
# MOIDs: Ju  0.2732 Sa  2.3503 Ur  8.7699 Ne 16.2480
Orbital elements:  P10Lwea
   Perihelion 2019 Jul 26.516402 +/- 0.00803 TT = 12:23:37 (JD 2458691.016402)
Epoch 2019 Feb  2.0 TT = JDT 2458516.5   Earth MOID: 0.7354   Ju: 0.2720
M 359.29154 +/- 0.0036              (J2000 ecliptic)          Find_Orb
n   0.00405953 +/- 2.05e-5          Peri.  237.80082 +/- 0.007
a  38.9180883 +/- 0.131             Node   278.36873 +/- 0.0025
e   0.9633498 +/- 0.00012           Incl.   84.34022 +/- 0.0033
P 242.79                   H 15.5   G  0.15   U  5.5  
q 1.42635454 +/- 0.00014    Q 76.4098221 +/- 0.26
From 79 observations 2018 Dec. 18-2019 Feb. 2; mean residual 0".57
# State vector (heliocentric equatorial J2000):
#   -0.209645451429  +1.608947250298  +2.145211402601 AU
#   -0.908433027928  +2.458215089016 -14.337378918385 mAU/day
# MOIDs: Me  1.2609 Ve  0.9544 Ea  0.7354 Ma  0.2469
# MOIDs: Ju  0.2720 Sa  2.3530 Ur  8.7756 Ne 16.2582
Orbital elements:  P10Lwea
   Perihelion 2019 Jul 26.513279 +/- 0.00825 TT = 12:19:07 (JD 2458691.013279)
Epoch 2019 Feb  2.0 TT = JDT 2458516.5   Earth MOID: 0.7354   Ju: 0.2717
M 359.29132 +/- 0.0036              (J2000 ecliptic)          Find_Orb
n   0.00406084 +/- 2.1e-5           Peri.  237.80267 +/- 0.007
a  38.9097554 +/- 0.134             Node   278.36982 +/- 0.0026
e   0.9633434 +/- 0.000123          Incl.   84.33879 +/- 0.0034
P 242.71                   H 15.5   G  0.15   U  5.5  
q 1.42629734 +/- 0.000144    Q 76.3932135 +/- 0.267
From 79 observations 2018 Dec. 18-2019 Feb. 2; mean residual 0".62
# State vector (heliocentric equatorial J2000):
#   -0.209654544662  +1.608929724001  +2.145171419376 AU
#   -0.908687864286  +2.457954151534 -14.337469582100 mAU/day
# MOIDs: Me  1.2609 Ve  0.9543 Ea  0.7354 Ma  0.2469
# MOIDs: Ju  0.2717 Sa  2.3535 Ur  8.7765 Ne 16.2594
Orbital elements:  P10Lwea
   Perihelion 2019 Jul 26.507618 +/- 0.00827 TT = 12:10:58 (JD 2458691.007618)
Epoch 2019 Feb  2.0 TT = JDT 2458516.5   Earth MOID: 0.7353   Ju: 0.2720
M 359.29299 +/- 0.0037              (J2000 ecliptic)          Find_Orb
n   0.00405141 +/- 2.1e-5           Peri.  237.80136 +/- 0.007
a  38.9700943 +/- 0.135             Node   278.37012 +/- 0.0026
e   0.9634004 +/- 0.000124          Incl.   84.33828 +/- 0.0034
P 243.27                   H 15.7   G  0.15   U  5.5  
q 1.42628960 +/- 0.000145    Q 76.5138990 +/- 0.269
From 79 observations 2018 Dec. 18-2019 Feb. 2; mean residual 0".62
# State vector (heliocentric equatorial J2000):
#   -0.209654884375  +1.608930226913  +2.145175844942 AU
#   -0.908780579589  +2.457758834392 -14.337896824611 mAU/day
# MOIDs: Me  1.2608 Ve  0.9543 Ea  0.7353 Ma  0.2468
# MOIDs: Ju  0.2720 Sa  2.3527 Ur  8.7748 Ne 16.2563
Orbital elements:  P10Lwea
   Perihelion 2019 Jul 26.511582 +/- 0.00744 TT = 12:16:40 (JD 2458691.011582)
Epoch 2019 Feb  2.0 TT = JDT 2458516.5   Earth MOID: 0.7354   Ju: 0.2727
M 359.29352 +/- 0.0033              (J2000 ecliptic)          Find_Orb
n   0.00404829 +/- 1.89e-5          Peri.  237.79686 +/- 0.006
a  38.9901059 +/- 0.122             Node   278.36803 +/- 0.0023
e   0.9634159 +/- 0.000111          Incl.   84.34110 +/- 0.0031
P 243.46                   H 15.5   G  0.15   U  5.4  
q 1.42641513 +/- 0.00013    Q 76.5537967 +/- 0.242
From 79 observations 2018 Dec. 18-2019 Feb. 2; mean residual 0".53
# State vector (heliocentric equatorial J2000):
#   -0.209638887349  +1.608961245238  +2.145235034315 AU
#   -0.908289426075  +2.458340348787 -14.337780115804 mAU/day
# MOIDs: Me  1.2609 Ve  0.9544 Ea  0.7354 Ma  0.2469
# MOIDs: Ju  0.2727 Sa  2.3516 Ur  8.7728 Ne 16.2535
Orbital elements:  P10Lwea
   Perihelion 2019 Jul 26.523876 +/- 0.00738 TT = 12:34:22 (JD 2458691.023876)
Epoch 2019 Feb  2.0 TT = JDT 2458516.5   Earth MOID: 0.7353   Ju: 0.2704
M 359.28709 +/- 0.0033              (J2000 ecliptic)          Find_Orb
n   0.00408484 +/- 1.88e-5          Peri.  237.80970 +/- 0.006
a  38.7572156 +/- 0.119             Node   278.37140 +/- 0.0023
e   0.9632015 +/- 0.00011           Incl.   84.33668 +/- 0.0031
P 241.28                   H 15.5   G  0.15   U  5.4  
q 1.42620435 +/- 0.000129    Q 76.0882270 +/- 0.237
From 79 observations 2018 Dec. 18-2019 Feb. 2; mean residual 0".53
# State vector (heliocentric equatorial J2000):
#   -0.209666965584  +1.608904313800  +2.145123878041 AU
#   -0.909078738915  +2.457844208933 -14.336568565664 mAU/day
# MOIDs: Me  1.2608 Ve  0.9543 Ea  0.7353 Ma  0.2468
# MOIDs: Ju  0.2704 Sa  2.3562 Ur  8.7820 Ne 16.2689
Orbital elements:  P10Lwea
   Perihelion 2019 Jul 26.512653 +/- 0.008 TT = 12:18:13 (JD 2458691.012653)
Epoch 2019 Feb  2.0 TT = JDT 2458516.5   Earth MOID: 0.7353   Ju: 0.2716
M 359.29108 +/- 0.0035              (J2000 ecliptic)          Find_Orb
n   0.00406227 +/- 2.04e-5          Peri.  237.80315 +/- 0.007
a  38.9006347 +/- 0.13              Node   278.37089 +/- 0.0025
e   0.9633352 +/- 0.00012           Incl.   84.33715 +/- 0.0033
P 242.62                   H 15.6   G  0.15   U  5.5  
q 1.42628209 +/- 0.00014    Q 76.3749873 +/- 0.259
From 79 observations 2018 Dec. 18-2019 Feb. 2; mean residual 0".58
# State vector (heliocentric equatorial J2000):
#   -0.209658877684  +1.608921359582  +2.145157256391 AU
#   -0.909024626875  +2.457871988810 -14.337445673767 mAU/day
# MOIDs: Me  1.2608 Ve  0.9543 Ea  0.7353 Ma  0.2468
# MOIDs: Ju  0.2716 Sa  2.3537 Ur  8.7768 Ne 16.2600
Orbital elements:  P10Lwea
   Perihelion 2019 Jul 26.505926 +/- 0.00758 TT = 12:08:32 (JD 2458691.005926)
Epoch 2019 Feb  2.0 TT = JDT 2458516.5   Earth MOID: 0.7353   Ju: 0.2717
M 359.29250 +/- 0.0033              (J2000 ecliptic)          Find_Orb
n   0.00405428 +/- 1.93e-5          Peri.  237.80308 +/- 0.007
a  38.9516915 +/- 0.124             Node   278.37115 +/- 0.0023
e   0.9633842 +/- 0.000113          Incl.   84.33690 +/- 0.0031
P 243.10                   H 15.5   G  0.15   U  5.5  
q 1.42624357 +/- 0.000132    Q 76.4771395 +/- 0.246
From 79 observations 2018 Dec. 18-2019 Feb. 2; mean residual 0".55
# State vector (heliocentric equatorial J2000):
#   -0.209662813361  +1.608913847991  +2.145140908487 AU
#   -0.909036286653  +2.457578168273 -14.337892158404 mAU/day
# MOIDs: Me  1.2608 Ve  0.9543 Ea  0.7353 Ma  0.2468
# MOIDs: Ju  0.2717 Sa  2.3533 Ur  8.7757 Ne 16.2578
Orbital elements:  P10Lwea
   Perihelion 2019 Jul 26.523026 +/- 0.0078 TT = 12:33:09 (JD 2458691.023026)
Epoch 2019 Feb  2.0 TT = JDT 2458516.5   Earth MOID: 0.7353   Ju: 0.2706
M 359.28753 +/- 0.0035              (J2000 ecliptic)          Find_Orb
n   0.00408234 +/- 1.99e-5          Peri.  237.80816 +/- 0.007
a  38.7730130 +/- 0.126             Node   278.37131 +/- 0.0024
e   0.9632157 +/- 0.000117          Incl.   84.33675 +/- 0.0032
P 241.43                   H 15.5   G  0.15   U  5.5  
q 1.42623435 +/- 0.000136    Q 76.1197917 +/- 0.251
From 79 observations 2018 Dec. 18-2019 Feb. 2; mean residual 0".56
# State vector (heliocentric equatorial J2000):
#   -0.209665230996  +1.608908657400  +2.145131788859 AU
#   -0.909087944594  +2.457948813699 -14.336633508956 mAU/day
# MOIDs: Me  1.2608 Ve  0.9543 Ea  0.7353 Ma  0.2468
# MOIDs: Ju  0.2706 Sa  2.3558 Ur  8.7812 Ne 16.2676
Orbital elements:  P10Lwea
   Perihelion 2019 Jul 26.515286 +/- 0.00828 TT = 12:22:00 (JD 2458691.015286)
Epoch 2019 Feb  2.0 TT = JDT 2458516.5   Earth MOID: 0.7354   Ju: 0.2720
M 359.29194 +/- 0.0037              (J2000 ecliptic)          Find_Orb
n   0.00405729 +/- 2.11e-5          Peri.  237.80088 +/- 0.007
a  38.9324553 +/- 0.135             Node   278.36874 +/- 0.0026
e   0.9633635 +/- 0.000124          Incl.   84.34018 +/- 0.0034
P 242.92                   H 15.5   G  0.15   U  5.5  
q 1.42634538 +/- 0.000145    Q 76.4385652 +/- 0.269
From 79 observations 2018 Dec. 18-2019 Feb. 2; mean residual 0".61
# State vector (heliocentric equatorial J2000):
#   -0.209644904040  +1.608949071068  +2.145213745997 AU
#   -0.908430494719  +2.458124044635 -14.337484221744 mAU/day
# MOIDs: Me  1.2609 Ve  0.9544 Ea  0.7354 Ma  0.2469
# MOIDs: Ju  0.2720 Sa  2.3529 Ur  8.7753 Ne 16.2576
Orbital elements:  P10Lwea
   Perihelion 2019 Jul 26.516502 +/- 0.00774 TT = 12:23:45 (JD 2458691.016502)
Epoch 2019 Feb  2.0 TT = JDT 2458516.5   Earth MOID: 0.7354   Ju: 0.2722
M 359.29169 +/- 0.0034              (J2000 ecliptic)          Find_Orb
n   0.00405865 +/- 1.97e-5          Peri.  237.79958 +/- 0.007
a  38.9237509 +/- 0.126             Node   278.36850 +/- 0.0024
e   0.9633543 +/- 0.000116          Incl.   84.34051 +/- 0.0032
P 242.84                   H 15.6   G  0.15   U  5.5  
q 1.42638478 +/- 0.000135    Q 76.4211172 +/- 0.251
From 79 observations 2018 Dec. 18-2019 Feb. 2; mean residual 0".56
# State vector (heliocentric equatorial J2000):
#   -0.209643634432  +1.608952567000  +2.145217542651 AU
#   -0.908396098504  +2.458345215000 -14.337374883153 mAU/day
